{
  "type": "FeatureCollection",
  "features": [
    {
      "type": "Feature",
      "properties": {
        "norad_id": 58701,
        "name": "TIANMU-1 16",
        "group": "weather",
        "lat": -63.34719806317525,
        "lon": -21.63686561561122,
        "alt_km": 496.8033483830768,
        "timestamp": "2025-12-18T15:47:10.863101+00:00",
        "meta_object_name": "TIANMU-1 16",
        "meta_object_id": "2024-004B",
        "meta_epoch": "2025-12-18T06:50:28.396032",
        "meta_mean_motion": 15.2450594,
        "meta_eccentricity": 0.00043309,
        "meta_inclination": 97.4562,
        "meta_ra_of_asc_node": 173.1177,
        "meta_arg_of_pericenter": 271.2946,
        "meta_mean_anomaly": 88.7795,
        "meta_ephemeris_type": 0,
        "meta_classification_type": "U",
        "meta_norad_cat_id": 58701,
        "meta_element_set_no": 999,
        "meta_rev_at_epoch": 10819,
        "meta_bstar": 0.00022766901,
        "meta_mean_motion_dot": 5.527e-05,
        "meta_mean_motion_ddot": 0,
        "tle_line1": "1 58701U 24004B   25352.28505088  .00005527  00000+0  22767-3 0  9999",
        "tle_line2": "2 58701  97.4562 173.1177 0004330 271.2946  88.7795 15.24505940108192"
      },
      "geometry": {
        "type": "Point",
        "coordinates": [
          -21.63686561561122,
          -63.34719806317525
        ]
      }
    },
    {
      "type": "Feature",
      "properties": {
        "norad_id": 58702,
        "name": "TIANMU-1 17",
        "group": "weather",
        "lat": -30.06396551811463,
        "lon": 178.2513949452024,
        "alt_km": 496.8752134096994,
        "timestamp": "2025-12-18T15:47:10.863112+00:00",
        "meta_object_name": "TIANMU-1 17",
        "meta_object_id": "2024-004C",
        "meta_epoch": "2025-12-18T06:28:03.753696",
        "meta_mean_motion": 15.24549297,
        "meta_eccentricity": 0.0003498,
        "meta_inclination": 97.4595,
        "meta_ra_of_asc_node": 173.5152,
        "meta_arg_of_pericenter": 273.5976,
        "meta_mean_anomaly": 86.4861,
        "meta_ephemeris_type": 0,
        "meta_classification_type": "U",
        "meta_norad_cat_id": 58702,
        "meta_element_set_no": 999,
        "meta_rev_at_epoch": 10818,
        "meta_bstar": 0.00023426421,
        "meta_mean_motion_dot": 5.696e-05,
        "meta_mean_motion_ddot": 0,
        "tle_line1": "1 58702U 24004C   25352.26948789  .00005696  00000+0  23426-3 0  9997",
        "tle_line2": "2 58702  97.4595 173.5152 0003498 273.5976  86.4861 15.24549297108189"
      },
      "geometry": {
        "type": "Point",
        "coordinates": [
          178.2513949452024,
          -30.06396551811463
        ]
      }
    },
    {
      "type": "Feature",
      "properties": {
        "norad_id": 58703,
        "name": "TIANMU-1 18",
        "group": "weather",
        "lat": 60.05588676753675,
        "lon": 160.94801785850325,
        "alt_km": 488.08868193134094,
        "timestamp": "2025-12-18T15:47:10.863122+00:00",
        "meta_object_name": "TIANMU-1 18",
        "meta_object_id": "2024-004D",
        "meta_epoch": "2025-12-18T07:38:37.459968",
        "meta_mean_motion": 15.24535755,
        "meta_eccentricity": 0.00028605,
        "meta_inclination": 97.4612,
        "meta_ra_of_asc_node": 173.7605,
        "meta_arg_of_pericenter": 271.6381,
        "meta_mean_anomaly": 88.4529,
        "meta_ephemeris_type": 0,
        "meta_classification_type": "U",
        "meta_norad_cat_id": 58703,
        "meta_element_set_no": 999,
        "meta_rev_at_epoch": 10819,
        "meta_bstar": 0.00023827166,
        "meta_mean_motion_dot": 5.792e-05,
        "meta_mean_motion_ddot": 0,
        "tle_line1": "1 58703U 24004D   25352.31848912  .00005792  00000+0  23827-3 0  9993",
        "tle_line2": "2 58703  97.4612 173.7605 0002860 271.6381  88.4529 15.24535755108194"
      },
      "geometry": {
        "type": "Point",
        "coordinates": [
          160.94801785850325,
          60.05588676753675
        ]
      }
    },
    {
      "type": "Feature",
      "properties": {
        "norad_id": 58990,
        "name": "INSAT-3DS",
        "group": "weather",
        "lat": -0.010545316496892363,
        "lon": 46.40948991212685,
        "alt_km": 35789.220154829134,
        "timestamp": "2025-12-18T15:47:10.863134+00:00",
        "meta_object_name": "INSAT-3DS",
        "meta_object_id": "2024-033A",
        "meta_epoch": "2025-12-18T01:42:01.949760",
        "meta_mean_motion": 1.00272468,
        "meta_eccentricity": 0.00010957,
        "meta_inclination": 0.0499,
        "meta_ra_of_asc_node": 112.0469,
        "meta_arg_of_pericenter": 159.0485,
        "meta_mean_anomaly": 283.4496,
        "meta_ephemeris_type": 0,
        "meta_classification_type": "U",
        "meta_norad_cat_id": 58990,
        "meta_element_set_no": 999,
        "meta_rev_at_epoch": 4525,
        "meta_bstar": 0,
        "meta_mean_motion_dot": -1.31e-06,
        "meta_mean_motion_ddot": 0,
        "tle_line1": "1 58990U 24033A   25352.07085590 -.00000131  00000+0  00000+0 0  9998",
        "tle_line2": "2 58990   0.0499 112.0469 0001095 159.0485 283.4496  1.00272468 45257"
      },
      "geometry": {
        "type": "Point",
        "coordinates": [
          46.40948991212685,
          -0.010545316496892363
        ]
      }
    },
    {
      "type": "Feature",
      "properties": {
        "norad_id": 59051,
        "name": "METEOR-M2 4",
        "group": "weather",
        "lat": -43.453400407910244,
        "lon": 121.1549896803644,
        "alt_km": 826.0783085518851,
        "timestamp": "2025-12-18T15:47:10.863147+00:00",
        "meta_object_name": "METEOR-M2 4",
        "meta_object_id": "2024-039A",
        "meta_epoch": "2025-12-18T06:17:41.378208",
        "meta_mean_motion": 14.22402168,
        "meta_eccentricity": 0.00067403,
        "meta_inclination": 98.6773,
        "meta_ra_of_asc_node": 309.0847,
        "meta_arg_of_pericenter": 342.3787,
        "meta_mean_anomaly": 17.7156,
        "meta_ephemeris_type": 0,
        "meta_classification_type": "U",
        "meta_norad_cat_id": 59051,
        "meta_element_set_no": 999,
        "meta_rev_at_epoch": 9354,
        "meta_bstar": 2.6943396e-05,
        "meta_mean_motion_dot": 1.6e-07,
        "meta_mean_motion_ddot": 0,
        "tle_line1": "1 59051U 24039A   25352.26228447  .00000016  00000+0  26943-4 0  9994",
        "tle_line2": "2 59051  98.6773 309.0847 0006740 342.3787  17.7156 14.22402168 93542"
      },
      "geometry": {
        "type": "Point",
        "coordinates": [
          121.1549896803644,
          -43.453400407910244
        ]
      }
    },
    {
      "type": "Feature",
      "properties": {
        "norad_id": 60133,
        "name": "GOES 19",
        "group": "weather",
        "lat": 0.005188640128165195,
        "lon": -110.8977598606122,
        "alt_km": 35784.92982357319,
        "timestamp": "2025-12-18T15:47:10.863160+00:00",
        "meta_object_name": "GOES 19",
        "meta_object_id": "2024-119A",
        "meta_epoch": "2025-12-18T02:39:56.862720",
        "meta_mean_motion": 1.00271699,
        "meta_eccentricity": 0.00010443,
        "meta_inclination": 0.0039,
        "meta_ra_of_asc_node": 99.4329,
        "meta_arg_of_pericenter": 223.6813,
        "meta_mean_anomaly": 88.6641,
        "meta_ephemeris_type": 0,
        "meta_classification_type": "U",
        "meta_norad_cat_id": 60133,
        "meta_element_set_no": 999,
        "meta_rev_at_epoch": 514,
        "meta_bstar": 0,
        "meta_mean_motion_dot": -2.23e-06,
        "meta_mean_motion_ddot": 0,
        "tle_line1": "1 60133U 24119A   25352.11107480 -.00000223  00000+0  00000+0 0  9995",
        "tle_line2": "2 60133   0.0039  99.4329 0001044 223.6813  88.6641  1.00271699  5145"
      },
      "geometry": {
        "type": "Point",
        "coordinates": [
          -110.8977598606122,
          0.005188640128165195
        ]
      }
    },
    {
      "type": "Feature",
      "properties": {
        "norad_id": 65815,
        "name": "FENGYUN 3H",
        "group": "weather",
        "lat": 49.00498904666944,
        "lon": -77.97837152997374,
        "alt_km": 820.8881050675727,
        "timestamp": "2025-12-18T15:47:10.863173+00:00",
        "meta_object_name": "FENGYUN 3H",
        "meta_object_id": "2025-219A",
        "meta_epoch": "2025-12-18T07:05:48.227712",
        "meta_mean_motion": 14.19906205,
        "meta_eccentricity": 6.949e-05,
        "meta_inclination": 98.6591,
        "meta_ra_of_asc_node": 291.7655,
        "meta_arg_of_pericenter": 102.1844,
        "meta_mean_anomaly": 257.9411,
        "meta_ephemeris_type": 0,
        "meta_classification_type": "U",
        "meta_norad_cat_id": 65815,
        "meta_element_set_no": 999,
        "meta_rev_at_epoch": 1171,
        "meta_bstar": 4.6209696e-05,
        "meta_mean_motion_dot": 5.5e-07,
        "meta_mean_motion_ddot": 0,
        "tle_line1": "1 65815U 25219A   25352.29569708  .00000055  00000+0  46210-4 0  9993",
        "tle_line2": "2 65815  98.6591 291.7655 0000694 102.1844 257.9411 14.19906205 11715"
      },
      "geometry": {
        "type": "Point",
        "coordinates": [
          -77.97837152997374,
          49.00498904666944
        ]
      }
    }
  ]
}